[{"OBJECT_NAME":"STARLINK-3602","OBJECT_ID":"2022-017Z","EPOCH":"2026-03-09T22:01:53.824512","MEAN_MOTION":15.08872509,"ECCENTRICITY":0.00022315,"INCLINATION":53.2178,"RA_OF_ASC_NODE":348.0946,"ARG_OF_PERICENTER":86.7575,"MEAN_ANOMALY":273.3672,"EPHEMERIS_TYPE":0,"CLASSIFICATION_TYPE":"U","NORAD_CAT_ID":51791,"ELEMENT_SET_NO":999,"REV_AT_EPOCH":22395,"BSTAR":-0.0011195022,"MEAN_MOTION_DOT":-0.00018077,"MEAN_MOTION_DDOT":0},{"OBJECT_NAME":"CZ-2D DEB","OBJECT_ID":"2010-027D","EPOCH":"2026-03-07T13:36:06.977952","MEAN_MOTION":15.23568143,"ECCENTRICITY":0.0065729,"INCLINATION":97.6621,"RA_OF_ASC_NODE":290.9585,"ARG_OF_PERICENTER":344.0278,"MEAN_ANOMALY":15.8885,"EPHEMERIS_TYPE":0,"CLASSIFICATION_TYPE":"U","NORAD_CAT_ID":38299,"ELEMENT_SET_NO":999,"REV_AT_EPOCH":83553,"BSTAR":0.0024156,"MEAN_MOTION_DOT":0.00061723,"MEAN_MOTION_DDOT":0}]
